{
    "links": {
        "self": "http://www.neowsapp.com/rest/v1/neo/3563431?api_key=iIulBulltgU6a56xZRHN4H3l9WmuAYTsLGpBGhQ2"
    },
    "id": "3563431",
    "neo_reference_id": "3563431",
    "name": "(2011 GV65)",
    "designation": "2011 GV65",
    "nasa_jpl_url": "http://ssd.jpl.nasa.gov/sbdb.cgi?sstr=3563431",
    "absolute_magnitude_h": 24.5,
    "estimated_diameter": {
        "kilometers": {
            "estimated_diameter_min": 0.0334622374,
            "estimated_diameter_max": 0.0748238376
        },
        "meters": {
            "estimated_diameter_min": 33.4622374455,
            "estimated_diameter_max": 74.8238376074
        },
        "miles": {
            "estimated_diameter_min": 0.0207924639,
            "estimated_diameter_max": 0.0464933628
        },
        "feet": {
            "estimated_diameter_min": 109.7842471007,
            "estimated_diameter_max": 245.4850393757
        }
    },
    "is_potentially_hazardous_asteroid": false,
    "close_approach_data": [
        {
            "close_approach_date": "2011-03-31",
            "close_approach_date_full": "2011-Mar-31 23:39",
            "epoch_date_close_approach": 1301614740000,
            "relative_velocity": {
                "kilometers_per_second": "12.7250532224",
                "kilometers_per_hour": "45810.1916008106",
                "miles_per_hour": "28464.6715532926"
            },
            "miss_distance": {
                "astronomical": "0.0285904994",
                "lunar": "11.1217042666",
                "kilometers": "4277077.812476278",
                "miles": "2657652.9156695164"
            },
            "orbiting_body": "Earth"
        }
    ],
    "orbital_data": {
        "orbit_id": "6",
        "orbit_determination_date": "2017-04-06 08:53:41",
        "first_observation_date": "2011-04-13",
        "last_observation_date": "2011-04-25",
        "data_arc_in_days": 12,
        "observations_used": 17,
        "orbit_uncertainty": "8",
        "minimum_orbit_intersection": ".0220788",
        "jupiter_tisserand_invariant": "3.697",
        "epoch_osculation": "2455665.5",
        "eccentricity": ".5590014988606596",
        "semi_major_axis": "1.926905977516543",
        "inclination": "9.16447742215607",
        "ascending_node_longitude": "19.71050449804231",
        "orbital_period": "976.9879625817462",
        "perihelion_distance": ".849762647921231",
        "perihelion_argument": "116.8647980972339",
        "aphelion_distance": "3.004049307111856",
        "perihelion_time": "2455613.138951830575",
        "mean_anomaly": "19.29397092179198",
        "mean_motion": ".3684794631948991",
        "equinox": "J2000",
        "orbit_class": {
            "orbit_class_type": "APO",
            "orbit_class_description": "Near-Earth asteroid orbits which cross the Earth’s orbit similar to that of 1862 Apollo",
            "orbit_class_range": "a (semi-major axis) > 1.0 AU; q (perihelion) < 1.017 AU"
        }
    },
    "is_sentry_object": false
}